AL MUNTHER              
1 63240U 25052AG  26068.64540749  .00017933  00000+0  65015-3 0  9992
2 63240  97.4001 323.9152 0008027 130.7043 229.4895 15.28381521 54798
STARLINK-34139          
1 63975U 25099Z   26068.28942154  .00038926  00000+0  14155-2 0  9997
2 63975  43.0025 175.1380 0003131 286.4319  73.6189 15.27602669 47225
